[{"OBJECT_NAME":"STARLINK-5377","OBJECT_ID":"2023-046BB","EPOCH":"2026-03-09T22:00:01.999584","MEAN_MOTION":15.10518743,"ECCENTRICITY":0.0002113,"INCLINATION":42.9998,"RA_OF_ASC_NODE":144.2164,"ARG_OF_PERICENTER":267.4994,"MEAN_ANOMALY":39.3239,"EPHEMERIS_TYPE":0,"CLASSIFICATION_TYPE":"U","NORAD_CAT_ID":56141,"ELEMENT_SET_NO":999,"REV_AT_EPOCH":577,"BSTAR":0.00020853406,"MEAN_MOTION_DOT":3.278e-5,"MEAN_MOTION_DDOT":0},{"OBJECT_NAME":"CZ-4B DEB","OBJECT_ID":"2006-046E","EPOCH":"2026-03-09T15:05:34.126944","MEAN_MOTION":15.05038248,"ECCENTRICITY":0.0035443,"INCLINATION":97.6504,"RA_OF_ASC_NODE":126.4986,"ARG_OF_PERICENTER":210.976,"MEAN_ANOMALY":148.9377,"EPHEMERIS_TYPE":0,"CLASSIFICATION_TYPE":"U","NORAD_CAT_ID":29509,"ELEMENT_SET_NO":999,"REV_AT_EPOCH":5351,"BSTAR":0.00027248,"MEAN_MOTION_DOT":3.86e-5,"MEAN_MOTION_DDOT":0}]
